OOV-CUBE (TUBSAT-30)    
1 60240U 24128F   26064.96858841  .00004296  00000+0  32972-3 0  9992
2 60240  61.9943 225.3497 0054810 111.5574 249.1371 15.02215173 90609
