[{"OBJECT_NAME":"OOV-CUBE (TUBSAT-30)","OBJECT_ID":"2024-128F","EPOCH":"2026-03-05T23:14:46.038624","MEAN_MOTION":15.02215173,"ECCENTRICITY":0.00548101,"INCLINATION":61.9943,"RA_OF_ASC_NODE":225.3497,"ARG_OF_PERICENTER":111.5574,"MEAN_ANOMALY":249.1371,"EPHEMERIS_TYPE":0,"CLASSIFICATION_TYPE":"U","NORAD_CAT_ID":60240,"ELEMENT_SET_NO":999,"REV_AT_EPOCH":9060,"BSTAR":0.00032971715,"MEAN_MOTION_DOT":4.296e-5,"MEAN_MOTION_DDOT":0}]
